[{"OBJECT_NAME":"SMOS","OBJECT_ID":"2009-059A","EPOCH":"2026-03-09T12:46:15.832416","MEAN_MOTION":14.39760281,"ECCENTRICITY":9.828e-5,"INCLINATION":98.4428,"RA_OF_ASC_NODE":257.3122,"ARG_OF_PERICENTER":82.3973,"MEAN_ANOMALY":277.7326,"EPHEMERIS_TYPE":0,"CLASSIFICATION_TYPE":"U","NORAD_CAT_ID":36036,"ELEMENT_SET_NO":999,"REV_AT_EPOCH":85911,"BSTAR":0.00013788061,"MEAN_MOTION_DOT":3.89e-6,"MEAN_MOTION_DDOT":0},{"OBJECT_NAME":"FENGYUN 1C DEB","OBJECT_ID":"1999-025CES","EPOCH":"2026-03-09T07:33:14.948640","MEAN_MOTION":14.32175197,"ECCENTRICITY":0.00384871,"INCLINATION":99.1465,"RA_OF_ASC_NODE":5.8147,"ARG_OF_PERICENTER":328.9443,"MEAN_ANOMALY":182.5934,"EPHEMERIS_TYPE":0,"CLASSIFICATION_TYPE":"U","NORAD_CAT_ID":31743,"ELEMENT_SET_NO":999,"REV_AT_EPOCH":96879,"BSTAR":0.0021551599,"MEAN_MOTION_DOT":5.806e-5,"MEAN_MOTION_DDOT":0}]
